1 44027U 98046W   19282.54285060 -.00000495 +00000-0 -20834-3 0  9996
2 44027 045.4026 336.1304 0214236 109.8687 252.5375 13.97823935039457
1 44027U 98046W   19283.18611268 -.00002732  00000-0 -15030-2 0  9997
2 44027  45.4029 333.2932 0213321 112.7992 249.5532 13.97817389 39548
1 44027U 98046W   19283.54347984 -.00000098 +00000-0 +20381-4 0  9997
2 44027 045.4027 331.7167 0213097 114.4496 247.8731 13.97819421039593
